COSMOS 2251 DEB         
1 34270U 93036LQ  17345.68011553  .00000197  00000-0  54959-4 0  9999
2 34270  74.0171  88.4024 0062140 238.8925 120.6131 14.51913929465793
